OBJECT_NAME,OBJECT_ID,EPOCH,MEAN_MOTION,ECCENTRICITY,INCLINATION,RA_OF_ASC_NODE,ARG_OF_PERICENTER,MEAN_ANOMALY,EPHEMERIS_TYPE,CLASSIFICATION_TYPE,NORAD_CAT_ID,ELEMENT_SET_NO,REV_AT_EPOCH,BSTAR,MEAN_MOTION_DOT,MEAN_MOTION_DDOT
STARLINK-37930,2026-143V,2026-07-09T06:00:02.000160,15.62004232,.0001867,97.2844,234.2217,88.3648,118.1490,0,U,69668,999,390,-.24616273E-1,-.189867E-1,0
STARLINK-37945,2026-143W,2026-07-09T06:00:02.000160,15.62284888,.0002005,97.2854,234.2541,94.9817,184.0692,0,U,69669,999,391,-.3243074E-1,-.2491154E-1,0
STARLINK-37948,2026-143X,2026-07-09T06:00:02.000160,15.49210860,.00007327,97.2858,234.1655,96.4904,331.5779,0,U,69670,999,391,-.1766373E-3,-.9692E-4,0
STARLINK-37949,2026-143Y,2026-07-09T06:00:02.000160,15.55425142,.00018586,97.2845,234.2146,64.4568,127.4940,0,U,69671,999,391,-.45319574E-1,-.2711202E-1,0
STARLINK-37946,2026-143Z,2026-07-09T06:00:02.000160,15.58300475,.00019463,97.2855,234.2458,81.2922,172.5499,0,U,69672,999,391,-.35369858E-1,-.2350203E-1,0
TJS-26A,2026-144A,2026-07-07T19:23:23.106912,1.00267330,.00034059,6.9612,323.2261,346.6689,14.2705,0,U,69674,999,14,0,-.335E-5,0
STARLINK-38005,2026-145A,2026-07-09T03:23:52.906848,15.75174947,.00013129,97.2851,36.6792,93.0953,267.0463,0,U,69677,999,222,.15901788E-2,.243794E-2,0
STARLINK-38009,2026-145B,2026-07-09T04:52:49.033056,15.75224188,.00012119,97.2860,36.7487,111.5231,248.6164,0,U,69678,999,223,.403738E-3,.60608E-3,0
STARLINK-37998,2026-145C,2026-07-09T06:00:02.000160,15.75224347,.0001467,97.2858,36.8043,80.7583,197.8644,0,U,69679,999,347,-.9427233E-3,-.138695E-2,0
STARLINK-37994,2026-145D,2026-07-09T06:00:02.000160,15.75248303,.00015203,97.2858,36.8015,90.2146,180.4054,0,U,69680,999,347,-.11229033E-2,-.164851E-2,0
STARLINK-37992,2026-145E,2026-07-08T18:09:55.224288,15.75252265,.00011561,97.2865,36.2836,60.7289,299.4092,0,U,69681,999,216,.86681323E-3,.131523E-2,0
STARLINK-37997,2026-145F,2026-07-09T06:00:02.000160,15.75234615,.00014332,97.2859,36.8039,105.4865,171.1388,0,U,69682,999,347,-.10042752E-2,-.147654E-2,0
STARLINK-37990,2026-145G,2026-07-09T00:15:19.459296,15.75225817,.00006716,97.2845,36.5511,110.0329,250.1009,0,U,69683,999,220,.13293057E-2,.203251E-2,0
STARLINK-37951,2026-145H,2026-07-09T00:14:18.200832,15.75312370,.00012472,97.2859,36.5523,239.0943,121.0200,0,U,69684,999,220,.15537936E-2,.23951E-2,0
STARLINK-37957,2026-145J,2026-07-09T00:12:46.238400,15.75323863,.00025145,97.2854,36.5537,241.9332,118.1680,0,U,69685,999,220,.12876617E-2,.197595E-2,0
STARLINK-37968,2026-145K,2026-07-09T07:41:33.260640,15.75210118,.00012977,97.2857,36.8948,96.5751,263.5662,0,U,69686,999,225,.86707068E-3,.13132E-2,0
STARLINK-37977,2026-145L,2026-07-09T04:37:34.580640,15.75200613,.00023411,97.2852,36.7652,105.4397,254.7127,0,U,69687,999,223,.1113021E-2,.169303E-2,0
STARLINK-37908,2026-145M,2026-07-09T00:00:03.934656,15.75295450,.00025453,97.2858,36.5666,242.4999,117.6007,0,U,69688,999,220,.98606223E-3,.150259E-2,0
STARLINK-37979,2026-145N,2026-07-08T23:59:33.799200,15.75298371,.00014202,97.2856,36.5668,239.3186,120.7939,0,U,69689,999,220,.10088985E-2,.153814E-2,0
STARLINK-37940,2026-145P,2026-07-08T23:58:02.653248,15.75302306,.00006966,97.2840,36.5688,265.5052,94.6134,0,U,69690,999,220,.11573485E-2,.176977E-2,0
STARLINK-37961,2026-145Q,2026-07-08T23:53:28.432608,15.75242710,.0000577,97.2846,36.5726,103.0018,257.1312,0,U,69691,999,220,.96279271E-3,.146295E-2,0
STARLINK-37787,2026-145R,2026-07-08T23:50:25.100448,15.75294301,.00015402,97.2838,36.5752,314.5448,45.5692,0,U,69692,999,220,.11246585E-2,.171811E-2,0
STARLINK-37962,2026-145S,2026-07-09T00:00:02.000160,15.75169922,.00014136,97.2855,36.5870,107.5734,300.3729,0,U,69693,999,343,-.31314679E-3,-.46544E-3,0
STARLINK-37953,2026-145T,2026-07-08T23:51:56.523744,15.75298175,.00016464,97.2847,36.5736,283.5599,76.5483,0,U,69694,999,220,.11741477E-2,.179573E-2,0
STARLINK-37926,2026-145U,2026-07-08T23:50:55.493376,15.75303020,.00014263,97.2814,36.5757,285.8970,74.2138,0,U,69695,999,220,.12062812E-2,.184638E-2,0
STARLINK-37959,2026-145V,2026-07-08T23:49:23.970720,15.75300949,.00017104,97.2818,36.5762,291.1638,68.9444,0,U,69696,999,220,.11358061E-2,.173603E-2,0
STARLINK-37976,2026-145W,2026-07-09T01:16:49.675008,15.75225089,.00012459,97.2852,36.6472,76.2146,283.9258,0,U,69697,999,221,.11521951E-2,.175572E-2,0
STARLINK-37912,2026-145X,2026-07-09T07:21:13.784256,15.75198911,.00013379,97.2863,36.9152,87.2262,272.9156,0,U,69698,999,225,.15580376E-2,.238975E-2,0
