STARLINK-37930          
1 69668U 26143V   26190.25002315 -.01898670  00000+0 -24616-1 0  9997
2 69668  97.2844 234.2217 0001867  88.3648 118.1490 15.62004232  3902
STARLINK-37945          
1 69669U 26143W   26190.25002315 -.02491154  00000+0 -32431-1 0  9999
2 69669  97.2854 234.2541 0002005  94.9817 184.0692 15.62284888  3914
STARLINK-37948          
1 69670U 26143X   26190.25002315 -.00009692  00000+0 -17664-3 0  9994
2 69670  97.2858 234.1655 0000732  96.4904 331.5779 15.49210860  3913
STARLINK-37949          
1 69671U 26143Y   26190.25002315 -.02711202  00000+0 -45320-1 0  9992
2 69671  97.2845 234.2146 0001858  64.4568 127.4940 15.55425142  3917
STARLINK-37946          
1 69672U 26143Z   26190.25002315 -.02350203  00000+0 -35370-1 0  9997
2 69672  97.2855 234.2458 0001946  81.2922 172.5499 15.58300475  3918
TJS-26A                 
1 69674U 26144A   26188.80790633 -.00000335  00000+0  00000+0 0  9990
2 69674   6.9612 323.2261 0003405 346.6689  14.2705  1.00267330   147
STARLINK-38005          
1 69677U 26145A   26190.14158457  .00243794  00000+0  15902-2 0  9993
2 69677  97.2851  36.6792 0001312  93.0953 267.0463 15.75174947  2222
STARLINK-38009          
1 69678U 26145B   26190.20334529  .00060608  00000+0  40374-3 0  9990
2 69678  97.2860  36.7487 0001211 111.5231 248.6164 15.75224188  2235
STARLINK-37998          
1 69679U 26145C   26190.25002315 -.00138695  00000+0 -94272-3 0  9991
2 69679  97.2858  36.8043 0001467  80.7583 197.8644 15.75224347  3474
STARLINK-37994          
1 69680U 26145D   26190.25002315 -.00164851  00000+0 -11229-2 0  9996
2 69680  97.2858  36.8015 0001520  90.2146 180.4054 15.75248303  3477
STARLINK-37992          
1 69681U 26145E   26189.75688917  .00131523  00000+0  86681-3 0  9991
2 69681  97.2865  36.2836 0001156  60.7289 299.4092 15.75252265  2166
STARLINK-37997          
1 69682U 26145F   26190.25002315 -.00147654  00000+0 -10043-2 0  9993
2 69682  97.2859  36.8039 0001433 105.4865 171.1388 15.75234615  3474
STARLINK-37990          
1 69683U 26145G   26190.01064189  .00203251  00000+0  13293-2 0  9999
2 69683  97.2845  36.5511 0000671 110.0329 250.1009 15.75225817  2204
STARLINK-37951          
1 69684U 26145H   26190.00993288  .00239510  00000+0  15538-2 0  9991
2 69684  97.2859  36.5523 0001247 239.0943 121.0200 15.75312370  2207
STARLINK-37957          
1 69685U 26145J   26190.00886850  .00197595  00000+0  12877-2 0  9997
2 69685  97.2854  36.5537 0002514 241.9332 118.1680 15.75323863  2208
STARLINK-37968          
1 69686U 26145K   26190.32052385  .00131320  00000+0  86707-3 0  9999
2 69686  97.2857  36.8948 0001297  96.5751 263.5662 15.75210118  2255
STARLINK-37977          
1 69687U 26145L   26190.19276135  .00169303  00000+0  11130-2 0  9995
2 69687  97.2852  36.7652 0002341 105.4397 254.7127 15.75200613  2234
STARLINK-37908          
1 69688U 26145M   26190.00004554  .00150259  00000+0  98606-3 0  9994
2 69688  97.2858  36.5666 0002545 242.4999 117.6007 15.75295450  2204
STARLINK-37979          
1 69689U 26145N   26189.99969675  .00153814  00000+0  10089-2 0  9993
2 69689  97.2856  36.5668 0001420 239.3186 120.7939 15.75298371  2203
STARLINK-37940          
1 69690U 26145P   26189.99864182  .00176977  00000+0  11573-2 0  9996
2 69690  97.2840  36.5688 0000696 265.5052  94.6134 15.75302306  2207
STARLINK-37961          
1 69691U 26145Q   26189.99546797  .00146295  00000+0  96279-3 0  9993
2 69691  97.2846  36.5726 0000577 103.0018 257.1312 15.75242710  2209
STARLINK-37787          
1 69692U 26145R   26189.99334607  .00171811  00000+0  11247-2 0  9992
2 69692  97.2838  36.5752 0001540 314.5448  45.5692 15.75294301  2200
STARLINK-37962          
1 69693U 26145S   26190.00002315 -.00046544  00000+0 -31315-3 0  9990
2 69693  97.2855  36.5870 0001413 107.5734 300.3729 15.75169922  3437
STARLINK-37953          
1 69694U 26145T   26189.99440421  .00179573  00000+0  11741-2 0  9998
2 69694  97.2847  36.5736 0001646 283.5599  76.5483 15.75298175  2208
STARLINK-37926          
1 69695U 26145U   26189.99369784  .00184638  00000+0  12063-2 0  9997
2 69695  97.2814  36.5757 0001426 285.8970  74.2138 15.75303020  2208
STARLINK-37959          
1 69696U 26145V   26189.99263855  .00173603  00000+0  11358-2 0  9996
2 69696  97.2818  36.5762 0001710 291.1638  68.9444 15.75300949  2203
STARLINK-37976          
1 69697U 26145W   26190.05335272  .00175572  00000+0  11522-2 0  9999
2 69697  97.2852  36.6472 0001245  76.2146 283.9258 15.75225089  2214
STARLINK-37912          
1 69698U 26145X   26190.30640954  .00238975  00000+0  15580-2 0  9999
2 69698  97.2863  36.9152 0001337  87.2262 272.9156 15.75198911  2250
